     2.100          NAVIGATION                              RINEX VERSION / TYPE
fic2rin                                 05/16/2016 00:08:25 PGM / RUN BY / DATE
                                                            END OF HEADER
 2 16  5 15  2  0  0.0  .591784715652D-03 -.216004991671D-11  .000000000000D+00
     .590000000000D+02 -.715000000000D+02  .515485757765D-08  .299591555799D+01
    -.367127358913D-05  .156638497720D-01  .614300370216D-05  .515377523613D+04
     .720000000000D+04  .689178705215D-07 -.207740157486D+01 -.271946191788D-06
     .942844813842D+00  .245937500000D+03 -.211923136057D+01 -.818605526777D-08
    -.260367988229D-09  .100000000000D+01  .189700000000D+04  .000000000000D+00
     .240000000000D+01  .000000000000D+00 -.200234353542D-07  .590000000000D+02
     .600000000000D+01  .400000000000D+01
 4 16  5 15  2  0  0.0 -.256253872067D-03 -.682121026330D-12  .000000000000D+00
     .500000000000D+02  .400000000000D+01  .519735934802D-08 -.466787725182D+00
     .393018126488D-06  .848131778184D-02  .892765820026D-05  .515364380074D+04
     .720000000000D+04  .223517417908D-07  .217396062687D+01  .100582838058D-06
     .983286202526D+00  .221750000000D+03  .883462859477D+00 -.789604318761D-08
     .131791203918D-09  .100000000000D+01  .189700000000D+04  .000000000000D+00
     .240000000000D+01  .630000000000D+02 -.195577740669D-07  .500000000000D+02
     .600000000000D+01  .400000000000D+01
 5 16  5 15  2  0  0.0 -.120807904750D-03  .306954461848D-11  .000000000000D+00
     .300000000000D+02 -.250000000000D+01  .474912639161D-08 -.768175873997D+00
    -.214204192162D-06  .460466661025D-02  .107623636723D-04  .515379296494D+04
     .720000000000D+04  .128522515297D-06 -.100216183074D+01  .596046447754D-07
     .946226973649D+00  .164562500000D+03  .453999111845D+00 -.809819446516D-08
    -.116076263614D-09  .100000000000D+01  .189700000000D+04  .000000000000D+00
     .240000000000D+01  .000000000000D+00 -.107102096081D-07  .300000000000D+02
     .600000000000D+01  .400000000000D+01
 7 16  5 15  2  0  0.0  .454546418041D-03 -.227373675443D-11  .000000000000D+00
     .410000000000D+02 -.396875000000D+01  .441446959466D-08  .190860622184D+01
    -.206753611565D-06  .940484111197D-02  .662729144096D-05  .515365138817D+04
     .720000000000D+04 -.180676579475D-06  .112689576332D+01  .968575477600D-07
     .966407318515D+00  .255437500000D+03 -.268015519287D+01 -.811390940547D-08
    -.265725354242D-09  .100000000000D+01  .189700000000D+04  .000000000000D+00
     .240000000000D+01  .000000000000D+00 -.111758708954D-07  .410000000000D+02
     .600000000000D+01  .400000000000D+01
11 16  5 15  2  0  0.0 -.646897591650D-03 -.136424205266D-11  .000000000000D+00
     .290000000000D+02 -.447500000000D+02  .622383067610D-08  .202644483489D+01
    -.260397791862D-05  .163448203821D-01  .440701842308D-05  .515366251945D+04
     .720000000000D+04  .191852450371D-06 -.240831286904D+01 -.258907675743D-06
     .896486834389D+00  .257093750000D+03  .152152128723D+01 -.873643533617D-08
    -.392873507616D-10  .100000000000D+01  .189700000000D+04  .000000000000D+00
     .240000000000D+01  .000000000000D+00 -.121071934700D-07  .290000000000D+02
     .600000000000D+01  .400000000000D+01
12 16  5 15  2  0  0.0  .379698351026D-03  .125055521494D-11  .000000000000D+00
     .510000000000D+02  .909375000000D+01  .369551107573D-08  .136715219949D+01
     .366941094398D-06  .613385927863D-02  .972300767899D-05  .515373916054D+04
     .720000000000D+04 -.484287738800D-07  .220315416217D+01  .856816768646D-07
     .990292933516D+00  .204281250000D+03  .740192739564D+00 -.776960934970D-08
     .115361948145D-09  .100000000000D+01  .189700000000D+04  .000000000000D+00
     .240000000000D+01  .000000000000D+00 -.125728547573D-07  .510000000000D+02
     .600000000000D+01  .400000000000D+01
13 16  5 15  2  0  0.0 -.178832560778D-04 -.261479726760D-11  .000000000000D+00
     .500000000000D+02  .487812500000D+02  .428196407528D-08  .283591136833D+01
     .263564288616D-05  .440942309797D-02  .637583434582D-05  .515367735672D+04
     .720000000000D+04 -.502914190292D-07  .169347328099D+00  .372529029846D-08
     .971904511153D+00  .263500000000D+03  .200034934900D+01 -.789568602987D-08
     .110718897601D-10  .100000000000D+01  .189700000000D+04  .000000000000D+00
     .240000000000D+01  .000000000000D+00 -.111758708954D-07  .500000000000D+02
     .600000000000D+01  .400000000000D+01
14 16  5 15  2  0  0.0 -.138715840876D-04 -.204636307899D-11  .000000000000D+00
     .510000000000D+02  .487187500000D+02  .448340103736D-08 -.171445133899D+01
     .251643359661D-05  .860851444304D-02  .616535544395D-05  .515400908852D+04
     .720000000000D+04  .244006514549D-06  .132399458009D+00  .353902578354D-07
     .964398562294D+00  .264000000000D+03 -.196509230207D+01 -.800854787388D-08
     .260725145963D-10  .100000000000D+01  .189700000000D+04  .000000000000D+00
     .240000000000D+01  .000000000000D+00 -.931322574615D-08  .510000000000D+02
     .600000000000D+01  .400000000000D+01
15 16  5 15  2  0  0.0 -.310915987939D-03 -.170530256582D-11  .000000000000D+00
     .890000000000D+02  .538125000000D+02  .522128891621D-08 -.237077523230D+01
     .277534127235D-05  .811747007538D-02  .667385756969D-05  .515358772087D+04
     .720000000000D+04 -.111758708954D-07 -.335877652367D-02 -.838190317154D-07
     .931231529371D+00  .235968750000D+03  .481611627686D+00 -.835356224511D-08
     .182507602174D-09  .100000000000D+01  .189700000000D+04  .000000000000D+00
     .240000000000D+01  .000000000000D+00 -.107102096081D-07  .890000000000D+02
     .600000000000D+01  .400000000000D+01
16 16  5 15  2  0  0.0 -.175586901605D-04  .261479726760D-11  .000000000000D+00
     .101000000000D+03  .621875000000D+01  .369693970666D-08 -.667777476869D+00
     .540167093277D-06  .876098510344D-02  .829249620438D-05  .515376073265D+04
     .720000000000D+04  .139698386192D-06  .222193099952D+01  .149011611938D-07
     .990815079699D+00  .231375000000D+03  .378610969935D+00 -.777425240025D-08
     .171078554680D-09  .100000000000D+01  .189700000000D+04  .000000000000D+00
     .240000000000D+01  .000000000000D+00 -.107102096081D-07  .101000000000D+03
     .600000000000D+01  .400000000000D+01
17 16  5 15  2  0  0.0 -.203706789762D-03 -.113686837722D-12  .000000000000D+00
     .860000000000D+02  .478125000000D+01  .447161483213D-08 -.155205690211D+01
     .514090061188D-06  .109597317642D-01  .546313822269D-05  .515368785477D+04
     .720000000000D+04  .162050127983D-06 -.303988316295D+01  .143423676491D-06
     .976531851237D+00  .280718750000D+03 -.192805532272D+01 -.804354933183D-08
     .312513017422D-09  .100000000000D+01  .189700000000D+04  .000000000000D+00
     .340000000000D+01  .000000000000D+00 -.107102096081D-07  .860000000000D+02
     .600000000000D+01  .400000000000D+01
18 16  5 15  2  0  0.0  .515665393323D-03  .420641299570D-11  .000000000000D+00
     .500000000000D+02 -.662500000000D+01  .545165565477D-08  .474692778574D-02
    -.156462192535D-06  .171413409989D-01  .971741974354D-05  .515368298149D+04
     .720000000000D+04 -.188127160072D-06 -.102298040287D+01  .162050127983D-06
     .924863640077D+00  .176593750000D+03 -.188698063533D+01 -.869857661635D-08
    -.119290683221D-09  .100000000000D+01  .189700000000D+04  .000000000000D+00
     .240000000000D+01  .000000000000D+00 -.121071934700D-07  .500000000000D+02
     .600000000000D+01  .400000000000D+01
19 16  5 15  2  0  0.0 -.525690615177D-03  .000000000000D+00  .000000000000D+00
     .660000000000D+02  .203125000000D+01  .459054835762D-08  .157889951781D+01
     .149011611938D-06  .107895937981D-01  .600889325142D-05  .515361537743D+04
     .720000000000D+04 -.264495611191D-06 -.299109663123D+01  .931322574615D-07
     .973619763583D+00  .274312500000D+03  .763385842793D+00 -.825534386821D-08
     .219294848796D-09  .100000000000D+01  .189700000000D+04  .000000000000D+00
     .240000000000D+01  .000000000000D+00 -.149011611938D-07  .660000000000D+02
     .600000000000D+01  .400000000000D+01
20 16  5 15  2  0  0.0  .412258785218D-03  .238742359215D-11  .000000000000D+00
     .670000000000D+02 -.163750000000D+02  .514735726523D-08 -.234004432079D+01
    -.776723027229D-06  .459916738328D-02  .105034559965D-04  .515374065971D+04
     .720000000000D+04  .707805156708D-07 -.107482625618D+01  .242143869400D-07
     .926098809607D+00  .158062500000D+03  .136532988925D+01 -.821391357104D-08
    -.767889128522D-10  .100000000000D+01  .189700000000D+04  .000000000000D+00
     .240000000000D+01  .000000000000D+00 -.838190317154D-08  .670000000000D+02
     .600000000000D+01  .400000000000D+01
21 16  5 15  2  0  0.0 -.522674527019D-03 -.125055521494D-11  .000000000000D+00
     .390000000000D+02 -.573125000000D+02  .558666127830D-08  .884978003732D+00
    -.303797423840D-05  .233707933221D-01  .680796802044D-05  .515361468124D+04
     .720000000000D+04 -.355765223503D-06 -.206535081644D+01 -.763684511185D-07
     .936041198787D+00  .247343750000D+03 -.179160773339D+01 -.895251576536D-08
    -.274297139863D-09  .100000000000D+01  .189700000000D+04  .000000000000D+00
     .240000000000D+01  .000000000000D+00 -.102445483208D-07  .390000000000D+02
     .600000000000D+01  .400000000000D+01
22 16  5 15  2  0  0.0  .342244282365D-03 -.807176547823D-11  .000000000000D+00
     .100000000000D+03  .459375000000D+01  .526629079072D-08 -.196183862158D+01
     .163912773132D-06  .766351365019D-02  .957585871220D-05  .515382775879D+04
     .720000000000D+04  .121071934700D-06 -.102230707874D+01  .372529029846D-08
     .922758778916D+00  .171750000000D+03 -.192345911060D+01 -.821677083292D-08
    -.635740766869D-10  .100000000000D+01  .189700000000D+04  .000000000000D+00
     .240000000000D+01  .000000000000D+00 -.176951289177D-07  .100000000000D+03
     .600000000000D+01  .400000000000D+01
